QIANFAN-105             
1 66047U 25233Q   25355.16502614  .00000065  00000+0  39517-4 0  9992
2 66047  88.9955  61.2115 0015842  22.2488 337.9371 13.92905683  9166
QIANFAN-106             
1 66048U 25233R   25354.91693885  .00000053  00000+0  43727-4 0  9991
2 66048  88.9945  61.2835 0016867  25.1296 335.0685 13.73106627  9103
QIANFAN-107             
1 66049U 25233S   25355.21171868  .00000050  00000+0  41474-4 0  9992
2 66049  88.9955  61.2548 0015361  23.6914 336.4952 13.71054153  9144
QIANFAN-108             
1 66050U 25233T   25354.91518761  .00000052  00000+0  43613-4 0  9996
2 66050  88.9923  61.2845 0016090  26.4235 333.7745 13.71911332  9105
